[{"OBJECT_NAME":"STARLINK-31787","OBJECT_ID":"2024-082V","EPOCH":"2026-03-09T05:50:33.653184","MEAN_MOTION":15.27563218,"ECCENTRICITY":0.00013535,"INCLINATION":43.0025,"RA_OF_ASC_NODE":142.3366,"ARG_OF_PERICENTER":279.3186,"MEAN_ANOMALY":80.7512,"EPHEMERIS_TYPE":0,"CLASSIFICATION_TYPE":"U","NORAD_CAT_ID":59650,"ELEMENT_SET_NO":999,"REV_AT_EPOCH":10494,"BSTAR":4.8583506e-5,"MEAN_MOTION_DOT":1.074e-5,"MEAN_MOTION_DDOT":0},{"OBJECT_NAME":"USA 55","OBJECT_ID":"1990-028B","EPOCH":"2026-03-09T23:32:27.967200","MEAN_MOTION":15.43003152,"ECCENTRICITY":0.00579189,"INCLINATION":94.0887,"RA_OF_ASC_NODE":87.6293,"ARG_OF_PERICENTER":152.9949,"MEAN_ANOMALY":207.4341,"EPHEMERIS_TYPE":0,"CLASSIFICATION_TYPE":"U","NORAD_CAT_ID":20547,"ELEMENT_SET_NO":999,"REV_AT_EPOCH":98658,"BSTAR":0.00013659834,"MEAN_MOTION_DOT":6.373e-5,"MEAN_MOTION_DDOT":0}]
